{
    "links": {
        "self": "http://www.neowsapp.com/rest/v1/neo/3989166?api_key=iIulBulltgU6a56xZRHN4H3l9WmuAYTsLGpBGhQ2"
    },
    "id": "3989166",
    "neo_reference_id": "3989166",
    "name": "(2020 BK7)",
    "designation": "2020 BK7",
    "nasa_jpl_url": "http://ssd.jpl.nasa.gov/sbdb.cgi?sstr=3989166",
    "absolute_magnitude_h": 25.962,
    "estimated_diameter": {
        "kilometers": {
            "estimated_diameter_min": 0.0170669131,
            "estimated_diameter_max": 0.0381627778
        },
        "meters": {
            "estimated_diameter_min": 17.0669130772,
            "estimated_diameter_max": 38.1627778068
        },
        "miles": {
            "estimated_diameter_min": 0.0106048848,
            "estimated_diameter_max": 0.0237132434
        },
        "feet": {
            "estimated_diameter_min": 55.9938111004,
            "estimated_diameter_max": 125.2059679397
        }
    },
    "is_potentially_hazardous_asteroid": false,
    "close_approach_data": [
        {
            "close_approach_date": "2011-12-13",
            "close_approach_date_full": "2011-Dec-13 06:02",
            "epoch_date_close_approach": 1323756120000,
            "relative_velocity": {
                "kilometers_per_second": "9.7310932835",
                "kilometers_per_hour": "35031.935820707",
                "miles_per_hour": "21767.4825659276"
            },
            "miss_distance": {
                "astronomical": "0.2174295509",
                "lunar": "84.5800953001",
                "kilometers": "32526997.689696583",
                "miles": "20211339.1521275254"
            },
            "orbiting_body": "Earth"
        },
        {
            "close_approach_date": "2020-01-10",
            "close_approach_date_full": "2020-Jan-10 17:14",
            "epoch_date_close_approach": 1578676440000,
            "relative_velocity": {
                "kilometers_per_second": "3.5577830991",
                "kilometers_per_hour": "12808.0191567302",
                "miles_per_hour": "7958.4050143583"
            },
            "miss_distance": {
                "astronomical": "0.0316920487",
                "lunar": "12.3282069443",
                "kilometers": "4741062.981456269",
                "miles": "2945959.9306997522"
            },
            "orbiting_body": "Earth"
        },
        {
            "close_approach_date": "2024-06-30",
            "close_approach_date_full": "2024-Jun-30 01:58",
            "epoch_date_close_approach": 1719712680000,
            "relative_velocity": {
                "kilometers_per_second": "8.2842810076",
                "kilometers_per_hour": "29823.4116272597",
                "miles_per_hour": "18531.1081858381"
            },
            "miss_distance": {
                "astronomical": "0.0705344084",
                "lunar": "27.4378848676",
                "kilometers": "10551797.258350108",
                "miles": "6556582.7835551704"
            },
            "orbiting_body": "Mars"
        }
    ],
    "orbital_data": {
        "orbit_id": "6",
        "orbit_determination_date": "2020-09-11 07:46:42",
        "first_observation_date": "2020-01-23",
        "last_observation_date": "2020-01-31",
        "data_arc_in_days": 8,
        "observations_used": 27,
        "orbit_uncertainty": "7",
        "minimum_orbit_intersection": ".0235463",
        "jupiter_tisserand_invariant": "4.793",
        "epoch_osculation": "2459000.5",
        "eccentricity": ".263537557973288",
        "semi_major_axis": "1.367861607594473",
        "inclination": "1.818181929973004",
        "ascending_node_longitude": "304.4756106211073",
        "orbital_period": "584.3346865651254",
        "perihelion_distance": "1.00737869988361",
        "perihelion_argument": "174.4904221409813",
        "aphelion_distance": "1.728344515305337",
        "perihelion_time": "2458866.862248646758",
        "mean_anomaly": "82.33225169289229",
        "mean_motion": ".616085281734986",
        "equinox": "J2000",
        "orbit_class": {
            "orbit_class_type": "APO",
            "orbit_class_description": "Near-Earth asteroid orbits which cross the Earth’s orbit similar to that of 1862 Apollo",
            "orbit_class_range": "a (semi-major axis) > 1.0 AU; q (perihelion) < 1.017 AU"
        }
    },
    "is_sentry_object": false
}